[{"OBJECT_NAME":"CSG-3","OBJECT_ID":"2026-001A","EPOCH":"2026-03-09T23:00:18.057312","MEAN_MOTION":14.82149464,"ECCENTRICITY":0.00014236,"INCLINATION":97.8867,"RA_OF_ASC_NODE":253.9922,"ARG_OF_PERICENTER":86.9093,"MEAN_ANOMALY":273.2283,"EPHEMERIS_TYPE":0,"CLASSIFICATION_TYPE":"U","NORAD_CAT_ID":67304,"ELEMENT_SET_NO":999,"REV_AT_EPOCH":976,"BSTAR":8.0107311e-5,"MEAN_MOTION_DOT":5.85e-6,"MEAN_MOTION_DDOT":0},{"OBJECT_NAME":"SL-14 R\/B","OBJECT_ID":"1984-105B","EPOCH":"2026-03-09T12:29:04.121376","MEAN_MOTION":14.85838389,"ECCENTRICITY":0.00185681,"INCLINATION":82.5301,"RA_OF_ASC_NODE":85.7447,"ARG_OF_PERICENTER":291.3248,"MEAN_ANOMALY":184.9077,"EPHEMERIS_TYPE":0,"CLASSIFICATION_TYPE":"U","NORAD_CAT_ID":15332,"ELEMENT_SET_NO":999,"REV_AT_EPOCH":21819,"BSTAR":6.6372461e-5,"MEAN_MOTION_DOT":6.03e-6,"MEAN_MOTION_DDOT":0}]
